SPACEMOBILE-003         
1 61045U 24163A   26177.81235899  .00001689  00000+0  90246-4 0  9998
2 61045  52.9744 265.1828 0005991 141.0621 219.0806 15.20822722 99230
SPACEMOBILE-005         
1 61046U 24163B   26186.14168682  .00014705  00000+0  67027-3 0  9993
2 61046  52.9797 226.8129 0008879 163.0841 197.0451 15.20856971100498
SPACEMOBILE-001         
1 61047U 24163C   26186.27170745  .00003790  00000+0  18398-3 0  9990
2 61047  52.9753 225.9334 0007557 162.6744 197.4509 15.20848620100511
SPACEMOBILE-002         
1 61048U 24163D   26186.12436068  .00018765  00000+0  85038-3 0  9991
2 61048  52.9730 226.6518 0007148 161.4282 198.6975 15.20884485100495
SPACEMOBILE-004         
1 61049U 24163E   26185.97531233  .00026055  00000+0  11767-2 0  9992
2 61049  52.9646 227.1235 0007463 189.3572 170.7284 15.20799201100478
SPACEMOBILE-001 DEB     
1 62369U 24163F   26186.02418687  .00015966  00000+0  46960-3 0  9995
2 62369  52.9925 195.3219 0006158 215.1498 144.9097 15.35252510 89246
SPACEMOBILE-002 DEB     
1 62370U 24163G   26185.99162102  .00033351  00000+0  73792-3 0  9991
2 62370  52.9407 180.2658 0004579 247.5467 112.5052 15.43516702101111
SPACEMOBILE-003 DEB     
1 62371U 24163H   26186.01058810  .00033354  00000+0  79526-3 0  9990
2 62371  52.9685 186.8824 0005839 200.9986 159.0778 15.41271370 94632
SPACEMOBILE-004 DEB     
1 62372U 24163J   26186.02410255  .00024207  00000+0  59478-3 0  9998
2 62372  52.9823 186.4003 0003033 220.8842 139.1934 15.40545360 97704
SPACEMOBILE-005 DEB     
1 62373U 24163K   26186.04159711  .00017324  00000+0  52046-3 0  9994
2 62373  52.9730 200.1080 0006216 194.1438 165.9389 15.34518617100862
SPACEMOBILE-006         
1 67232U 25309A   26186.20760175  .00002706  00000+0  14422-3 0  9990
2 67232  52.9961 249.0893 0010742 182.6620 177.4319 15.18640214 29339
SPACEMOBILE-008         
1 69589U 26139A   26185.97871737  .00000547  00000+0  47782-4 0  9996
2 69589  52.9937 181.7914 0004531  31.4553 328.6708 15.12791825  2679
SPACEMOBILE-009         
1 69590U 26139B   26185.97995895  .00000563  00000+0  48807-4 0  9997
2 69590  52.9927 181.7949 0004740  26.4443 333.6789 15.12685143  2672
SPACEMOBILE-010         
1 69591U 26139C   26185.98193164  .00000605  00000+0  51397-4 0  9993
2 69591  52.9932 181.8095 0004617  17.3022 342.8125 15.12516354  2681
