{"fetched_at":"2026-07-05T17:36:53.253Z","source":"https://celestrak.org/NORAD/elements/gp.php?NAME=SPACEMOBILE&FORMAT=JSON","constellation":"ast-spacemobile","records":[{"OBJECT_NAME":"SPACEMOBILE-003","OBJECT_ID":"2024-163A","EPOCH":"2026-06-26T19:29:47.816736","CLASSIFICATION_TYPE":"U","MEAN_MOTION":15.20822722,"ECCENTRICITY":0.0005991,"INCLINATION":52.9744,"RA_OF_ASC_NODE":265.1828,"ARG_OF_PERICENTER":141.0621,"MEAN_ANOMALY":219.0806,"EPHEMERIS_TYPE":0,"NORAD_CAT_ID":61045,"ELEMENT_SET_NO":999,"REV_AT_EPOCH":9923,"BSTAR":0.000090246,"MEAN_MOTION_DOT":0.00001689,"MEAN_MOTION_DDOT":0},{"OBJECT_NAME":"SPACEMOBILE-005","OBJECT_ID":"2024-163B","EPOCH":"2026-07-05T03:24:01.741248","CLASSIFICATION_TYPE":"U","MEAN_MOTION":15.20856971,"ECCENTRICITY":0.00088792,"INCLINATION":52.9797,"RA_OF_ASC_NODE":226.8129,"ARG_OF_PERICENTER":163.0841,"MEAN_ANOMALY":197.0451,"EPHEMERIS_TYPE":0,"NORAD_CAT_ID":61046,"ELEMENT_SET_NO":999,"REV_AT_EPOCH":10049,"BSTAR":0.00067026872,"MEAN_MOTION_DOT":0.00014705,"MEAN_MOTION_DDOT":0},{"OBJECT_NAME":"SPACEMOBILE-001","OBJECT_ID":"2024-163C","EPOCH":"2026-07-05T06:31:15.523680","CLASSIFICATION_TYPE":"U","MEAN_MOTION":15.2084862,"ECCENTRICITY":0.00075573,"INCLINATION":52.9753,"RA_OF_ASC_NODE":225.9334,"ARG_OF_PERICENTER":162.6744,"MEAN_ANOMALY":197.4509,"EPHEMERIS_TYPE":0,"NORAD_CAT_ID":61047,"ELEMENT_SET_NO":999,"REV_AT_EPOCH":10051,"BSTAR":0.00018398451,"MEAN_MOTION_DOT":0.0000379,"MEAN_MOTION_DDOT":0},{"OBJECT_NAME":"SPACEMOBILE-002","OBJECT_ID":"2024-163D","EPOCH":"2026-07-05T02:59:04.762752","CLASSIFICATION_TYPE":"U","MEAN_MOTION":15.20884485,"ECCENTRICITY":0.00071485,"INCLINATION":52.973,"RA_OF_ASC_NODE":226.6518,"ARG_OF_PERICENTER":161.4282,"MEAN_ANOMALY":198.6975,"EPHEMERIS_TYPE":0,"NORAD_CAT_ID":61048,"ELEMENT_SET_NO":999,"REV_AT_EPOCH":10049,"BSTAR":0.00085037634,"MEAN_MOTION_DOT":0.00018765,"MEAN_MOTION_DDOT":0},{"OBJECT_NAME":"SPACEMOBILE-004","OBJECT_ID":"2024-163E","EPOCH":"2026-07-04T23:24:26.985312","CLASSIFICATION_TYPE":"U","MEAN_MOTION":15.20799201,"ECCENTRICITY":0.00074637,"INCLINATION":52.9646,"RA_OF_ASC_NODE":227.1235,"ARG_OF_PERICENTER":189.3572,"MEAN_ANOMALY":170.7284,"EPHEMERIS_TYPE":0,"NORAD_CAT_ID":61049,"ELEMENT_SET_NO":999,"REV_AT_EPOCH":10047,"BSTAR":0.0011767463,"MEAN_MOTION_DOT":0.00026055,"MEAN_MOTION_DDOT":0},{"OBJECT_NAME":"SPACEMOBILE-001 DEB","OBJECT_ID":"2024-163F","EPOCH":"2026-07-05T00:34:49.745568","CLASSIFICATION_TYPE":"U","MEAN_MOTION":15.3525251,"ECCENTRICITY":0.00061584,"INCLINATION":52.9925,"RA_OF_ASC_NODE":195.3219,"ARG_OF_PERICENTER":215.1498,"MEAN_ANOMALY":144.9097,"EPHEMERIS_TYPE":0,"NORAD_CAT_ID":62369,"ELEMENT_SET_NO":999,"REV_AT_EPOCH":8924,"BSTAR":0.00046959992,"MEAN_MOTION_DOT":0.00015966,"MEAN_MOTION_DDOT":0},{"OBJECT_NAME":"SPACEMOBILE-002 DEB","OBJECT_ID":"2024-163G","EPOCH":"2026-07-04T23:47:56.056128","CLASSIFICATION_TYPE":"U","MEAN_MOTION":15.43516702,"ECCENTRICITY":0.00045793,"INCLINATION":52.9407,"RA_OF_ASC_NODE":180.2658,"ARG_OF_PERICENTER":247.5467,"MEAN_ANOMALY":112.5052,"EPHEMERIS_TYPE":0,"NORAD_CAT_ID":62370,"ELEMENT_SET_NO":999,"REV_AT_EPOCH":10111,"BSTAR":0.00073791611,"MEAN_MOTION_DOT":0.00033351,"MEAN_MOTION_DDOT":0},{"OBJECT_NAME":"SPACEMOBILE-003 DEB","OBJECT_ID":"2024-163H","EPOCH":"2026-07-05T00:15:14.811840","CLASSIFICATION_TYPE":"U","MEAN_MOTION":15.4127137,"ECCENTRICITY":0.00058399,"INCLINATION":52.9685,"RA_OF_ASC_NODE":186.8824,"ARG_OF_PERICENTER":200.9986,"MEAN_ANOMALY":159.0778,"EPHEMERIS_TYPE":0,"NORAD_CAT_ID":62371,"ELEMENT_SET_NO":999,"REV_AT_EPOCH":9463,"BSTAR":0.00079526024,"MEAN_MOTION_DOT":0.00033354,"MEAN_MOTION_DDOT":0},{"OBJECT_NAME":"SPACEMOBILE-004 DEB","OBJECT_ID":"2024-163J","EPOCH":"2026-07-05T00:34:42.460320","CLASSIFICATION_TYPE":"U","MEAN_MOTION":15.4054536,"ECCENTRICITY":0.00030334,"INCLINATION":52.9823,"RA_OF_ASC_NODE":186.4003,"ARG_OF_PERICENTER":220.8842,"MEAN_ANOMALY":139.1934,"EPHEMERIS_TYPE":0,"NORAD_CAT_ID":62372,"ELEMENT_SET_NO":999,"REV_AT_EPOCH":9770,"BSTAR":0.00059477734,"MEAN_MOTION_DOT":0.00024207,"MEAN_MOTION_DDOT":0},{"OBJECT_NAME":"SPACEMOBILE-005 DEB","OBJECT_ID":"2024-163K","EPOCH":"2026-07-05T00:59:53.990304","CLASSIFICATION_TYPE":"U","MEAN_MOTION":15.34518617,"ECCENTRICITY":0.00062169,"INCLINATION":52.973,"RA_OF_ASC_NODE":200.108,"ARG_OF_PERICENTER":194.1438,"MEAN_ANOMALY":165.9389,"EPHEMERIS_TYPE":0,"NORAD_CAT_ID":62373,"ELEMENT_SET_NO":999,"REV_AT_EPOCH":10086,"BSTAR":0.00052046283,"MEAN_MOTION_DOT":0.00017324,"MEAN_MOTION_DDOT":0},{"OBJECT_NAME":"SPACEMOBILE-006","OBJECT_ID":"2025-309A","EPOCH":"2026-07-05T04:58:56.791200","CLASSIFICATION_TYPE":"U","MEAN_MOTION":15.18640214,"ECCENTRICITY":0.00107425,"INCLINATION":52.9961,"RA_OF_ASC_NODE":249.0893,"ARG_OF_PERICENTER":182.662,"MEAN_ANOMALY":177.4319,"EPHEMERIS_TYPE":0,"NORAD_CAT_ID":67232,"ELEMENT_SET_NO":999,"REV_AT_EPOCH":2933,"BSTAR":0.00014421712,"MEAN_MOTION_DOT":0.00002706,"MEAN_MOTION_DDOT":0},{"OBJECT_NAME":"SPACEMOBILE-008","OBJECT_ID":"2026-139A","EPOCH":"2026-07-04T23:29:21.180768","CLASSIFICATION_TYPE":"U","MEAN_MOTION":15.12791825,"ECCENTRICITY":0.00045319,"INCLINATION":52.9937,"RA_OF_ASC_NODE":181.7914,"ARG_OF_PERICENTER":31.4553,"MEAN_ANOMALY":328.6708,"EPHEMERIS_TYPE":0,"NORAD_CAT_ID":69589,"ELEMENT_SET_NO":999,"REV_AT_EPOCH":267,"BSTAR":0.000047782231,"MEAN_MOTION_DOT":0.00000547,"MEAN_MOTION_DDOT":0},{"OBJECT_NAME":"SPACEMOBILE-009","OBJECT_ID":"2026-139B","EPOCH":"2026-07-04T23:31:08.453280","CLASSIFICATION_TYPE":"U","MEAN_MOTION":15.12685143,"ECCENTRICITY":0.00047409,"INCLINATION":52.9927,"RA_OF_ASC_NODE":181.7949,"ARG_OF_PERICENTER":26.4443,"MEAN_ANOMALY":333.6789,"EPHEMERIS_TYPE":0,"NORAD_CAT_ID":69590,"ELEMENT_SET_NO":999,"REV_AT_EPOCH":267,"BSTAR":0.0000488071,"MEAN_MOTION_DOT":0.00000563,"MEAN_MOTION_DDOT":0},{"OBJECT_NAME":"SPACEMOBILE-010","OBJECT_ID":"2026-139C","EPOCH":"2026-07-04T23:33:58.893696","CLASSIFICATION_TYPE":"U","MEAN_MOTION":15.12516354,"ECCENTRICITY":0.00046173,"INCLINATION":52.9932,"RA_OF_ASC_NODE":181.8095,"ARG_OF_PERICENTER":17.3022,"MEAN_ANOMALY":342.8125,"EPHEMERIS_TYPE":0,"NORAD_CAT_ID":69591,"ELEMENT_SET_NO":999,"REV_AT_EPOCH":268,"BSTAR":0.000051397229,"MEAN_MOTION_DOT":0.00000605,"MEAN_MOTION_DDOT":0}]}
